CCSDS_OMM_VERS = 2.0
CREATION_DATE  = 
ORIGINATOR     = 

OBJECT_NAME    = STARLINK-36802
OBJECT_ID      = 2026-038AA
CENTER_NAME    = EARTH
REF_FRAME      = TEME
TIME_SYSTEM    = UTC
MEAN_ELEMENT_THEORY = SGP/SGP4

EPOCH          = 2026-03-26T23:36:43.178112
MEAN_MOTION    = 15.75334171
ECCENTRICITY   = .0001122
INCLINATION    = 97.2872
RA_OF_ASC_NODE = 97.2043
ARG_OF_PERICENTER = 102.2257
MEAN_ANOMALY   = 257.9134

EPHEMERIS_TYPE = 0
CLASSIFICATION_TYPE = U
NORAD_CAT_ID   = 67985
ELEMENT_SET_NO = 999
REV_AT_EPOCH   = 591
BSTAR          = .17887E-2
MEAN_MOTION_DOT = .277231E-2
MEAN_MOTION_DDOT = 0

CCSDS_OMM_VERS = 2.0
CREATION_DATE  = 
ORIGINATOR     = 

OBJECT_NAME    = STARLINK-36535
OBJECT_ID      = 2026-039A
CENTER_NAME    = EARTH
REF_FRAME      = TEME
TIME_SYSTEM    = UTC
MEAN_ELEMENT_THEORY = SGP/SGP4

EPOCH          = 2026-03-27T04:00:03.000096
MEAN_MOTION    = 15.29899943
ECCENTRICITY   = .0000985
INCLINATION    = 42.9993
RA_OF_ASC_NODE = 310.7891
ARG_OF_PERICENTER = 269.3331
MEAN_ANOMALY   = 316.4895

EPHEMERIS_TYPE = 0
CLASSIFICATION_TYPE = U
NORAD_CAT_ID   = 67986
ELEMENT_SET_NO = 999
REV_AT_EPOCH   = 568
BSTAR          = -.72691E-1
MEAN_MOTION_DOT = -.1947737E-1
MEAN_MOTION_DDOT = 0

CCSDS_OMM_VERS = 2.0
CREATION_DATE  = 
ORIGINATOR     = 

OBJECT_NAME    = STARLINK-36744
OBJECT_ID      = 2026-039B
CENTER_NAME    = EARTH
REF_FRAME      = TEME
TIME_SYSTEM    = UTC
MEAN_ELEMENT_THEORY = SGP/SGP4

EPOCH          = 2026-03-27T04:00:03.000096
MEAN_MOTION    = 15.32276097
ECCENTRICITY   = .0001425
INCLINATION    = 42.9992
RA_OF_ASC_NODE = 310.5881
ARG_OF_PERICENTER = 277.3145
MEAN_ANOMALY   = 30.5055

EPHEMERIS_TYPE = 0
CLASSIFICATION_TYPE = U
NORAD_CAT_ID   = 67987
ELEMENT_SET_NO = 999
REV_AT_EPOCH   = 568
BSTAR          = -.76161E-1
MEAN_MOTION_DOT = -.2173518E-1
MEAN_MOTION_DDOT = 0

CCSDS_OMM_VERS = 2.0
CREATION_DATE  = 
ORIGINATOR     = 

OBJECT_NAME    = STARLINK-36734
OBJECT_ID      = 2026-039C
CENTER_NAME    = EARTH
REF_FRAME      = TEME
TIME_SYSTEM    = UTC
MEAN_ELEMENT_THEORY = SGP/SGP4

EPOCH          = 2026-03-27T04:00:03.000096
MEAN_MOTION    = 15.50588420
ECCENTRICITY   = .0001806
INCLINATION    = 42.9997
RA_OF_ASC_NODE = 311.4104
ARG_OF_PERICENTER = 279.0486
MEAN_ANOMALY   = 57.6676

EPHEMERIS_TYPE = 0
CLASSIFICATION_TYPE = U
NORAD_CAT_ID   = 67988
ELEMENT_SET_NO = 999
REV_AT_EPOCH   = 568
BSTAR          = -.45352E-3
MEAN_MOTION_DOT = -.26866E-3
MEAN_MOTION_DDOT = 0

CCSDS_OMM_VERS = 2.0
CREATION_DATE  = 
ORIGINATOR     = 

OBJECT_NAME    = STARLINK-36957
OBJECT_ID      = 2026-039D
CENTER_NAME    = EARTH
REF_FRAME      = TEME
TIME_SYSTEM    = UTC
MEAN_ELEMENT_THEORY = SGP/SGP4

EPOCH          = 2026-03-27T04:00:03.000096
MEAN_MOTION    = 15.34902641
ECCENTRICITY   = .0001366
INCLINATION    = 42.9989
RA_OF_ASC_NODE = 310.5489
ARG_OF_PERICENTER = 281.6259
MEAN_ANOMALY   = 42.6675

EPHEMERIS_TYPE = 0
CLASSIFICATION_TYPE = U
NORAD_CAT_ID   = 67989
ELEMENT_SET_NO = 999
REV_AT_EPOCH   = 568
BSTAR          = -.70051E-1
MEAN_MOTION_DOT = -.2174045E-1
MEAN_MOTION_DDOT = 0

CCSDS_OMM_VERS = 2.0
CREATION_DATE  = 
ORIGINATOR     = 

OBJECT_NAME    = STARLINK-36951
OBJECT_ID      = 2026-039E
CENTER_NAME    = EARTH
REF_FRAME      = TEME
TIME_SYSTEM    = UTC
MEAN_ELEMENT_THEORY = SGP/SGP4

EPOCH          = 2026-03-25T01:07:19.896384
MEAN_MOTION    = 15.50598247
ECCENTRICITY   = .00029674
INCLINATION    = 43.0018
RA_OF_ASC_NODE = 322.9387
ARG_OF_PERICENTER = 275.8567
MEAN_ANOMALY   = 84.1955

EPHEMERIS_TYPE = 0
CLASSIFICATION_TYPE = U
NORAD_CAT_ID   = 67990
ELEMENT_SET_NO = 999
REV_AT_EPOCH   = 404
BSTAR          = .10464842E-2
MEAN_MOTION_DOT = .61583E-3
MEAN_MOTION_DDOT = 0

CCSDS_OMM_VERS = 2.0
CREATION_DATE  = 
ORIGINATOR     = 

OBJECT_NAME    = STARLINK-36941
OBJECT_ID      = 2026-039F
CENTER_NAME    = EARTH
REF_FRAME      = TEME
TIME_SYSTEM    = UTC
MEAN_ELEMENT_THEORY = SGP/SGP4

EPOCH          = 2026-03-26T23:26:54.273120
MEAN_MOTION    = 15.50619388
ECCENTRICITY   = .0002963
INCLINATION    = 43.0013
RA_OF_ASC_NODE = 312.5064
ARG_OF_PERICENTER = 268.9588
MEAN_ANOMALY   = 91.0933

EPHEMERIS_TYPE = 0
CLASSIFICATION_TYPE = U
NORAD_CAT_ID   = 67991
ELEMENT_SET_NO = 999
REV_AT_EPOCH   = 433
BSTAR          = .15034E-2
MEAN_MOTION_DOT = .89E-3
MEAN_MOTION_DDOT = 0

CCSDS_OMM_VERS = 2.0
CREATION_DATE  = 
ORIGINATOR     = 

OBJECT_NAME    = STARLINK-36950
OBJECT_ID      = 2026-039G
CENTER_NAME    = EARTH
REF_FRAME      = TEME
TIME_SYSTEM    = UTC
MEAN_ELEMENT_THEORY = SGP/SGP4

EPOCH          = 2026-03-26T22:47:32.823744
MEAN_MOTION    = 15.50613993
ECCENTRICITY   = .0002234
INCLINATION    = 43.0009
RA_OF_ASC_NODE = 312.2914
ARG_OF_PERICENTER = 276.3543
MEAN_ANOMALY   = 83.7062

EPHEMERIS_TYPE = 0
CLASSIFICATION_TYPE = U
NORAD_CAT_ID   = 67992
ELEMENT_SET_NO = 999
REV_AT_EPOCH   = 433
BSTAR          = .17468E-2
MEAN_MOTION_DOT = .103632E-2
MEAN_MOTION_DDOT = 0

CCSDS_OMM_VERS = 2.0
CREATION_DATE  = 
ORIGINATOR     = 

OBJECT_NAME    = STARLINK-36975
OBJECT_ID      = 2026-039H
CENTER_NAME    = EARTH
REF_FRAME      = TEME
TIME_SYSTEM    = UTC
MEAN_ELEMENT_THEORY = SGP/SGP4

EPOCH          = 2026-03-27T00:10:11.802720
MEAN_MOTION    = 15.50597274
ECCENTRICITY   = .0001248
INCLINATION    = 42.9973
RA_OF_ASC_NODE = 311.8584
ARG_OF_PERICENTER = 262.7684
MEAN_ANOMALY   = 97.3035

EPHEMERIS_TYPE = 0
CLASSIFICATION_TYPE = U
NORAD_CAT_ID   = 67993
ELEMENT_SET_NO = 999
REV_AT_EPOCH   = 434
BSTAR          = .14492E-2
MEAN_MOTION_DOT = .85666E-3
MEAN_MOTION_DDOT = 0

CCSDS_OMM_VERS = 2.0
CREATION_DATE  = 
ORIGINATOR     = 

OBJECT_NAME    = STARLINK-36993
OBJECT_ID      = 2026-039J
CENTER_NAME    = EARTH
REF_FRAME      = TEME
TIME_SYSTEM    = UTC
MEAN_ELEMENT_THEORY = SGP/SGP4

EPOCH          = 2026-03-27T04:00:03.000096
MEAN_MOTION    = 15.38988872
ECCENTRICITY   = .0001973
INCLINATION    = 42.9998
RA_OF_ASC_NODE = 310.3608
ARG_OF_PERICENTER = 256.3459
MEAN_ANOMALY   = 144.7076

EPHEMERIS_TYPE = 0
CLASSIFICATION_TYPE = U
NORAD_CAT_ID   = 67994
ELEMENT_SET_NO = 999
REV_AT_EPOCH   = 568
BSTAR          = -.52968E-1
MEAN_MOTION_DOT = -.1875718E-1
MEAN_MOTION_DDOT = 0

CCSDS_OMM_VERS = 2.0
CREATION_DATE  = 
ORIGINATOR     = 

OBJECT_NAME    = STARLINK-36968
OBJECT_ID      = 2026-039K
CENTER_NAME    = EARTH
REF_FRAME      = TEME
TIME_SYSTEM    = UTC
MEAN_ELEMENT_THEORY = SGP/SGP4

EPOCH          = 2026-03-26T22:58:20.347680
MEAN_MOTION    = 15.50601675
ECCENTRICITY   = .0002402
INCLINATION    = 43.0002
RA_OF_ASC_NODE = 312.3509
ARG_OF_PERICENTER = 287.6421
MEAN_ANOMALY   = 72.4177

EPHEMERIS_TYPE = 0
CLASSIFICATION_TYPE = U
NORAD_CAT_ID   = 67995
ELEMENT_SET_NO = 999
REV_AT_EPOCH   = 433
BSTAR          = .12744E-2
MEAN_MOTION_DOT = .75209E-3
MEAN_MOTION_DDOT = 0

CCSDS_OMM_VERS = 2.0
CREATION_DATE  = 
ORIGINATOR     = 

OBJECT_NAME    = STARLINK-36979
OBJECT_ID      = 2026-039L
CENTER_NAME    = EARTH
REF_FRAME      = TEME
TIME_SYSTEM    = UTC
MEAN_ELEMENT_THEORY = SGP/SGP4

EPOCH          = 2026-03-27T04:00:03.000096
MEAN_MOTION    = 15.37715189
ECCENTRICITY   = .0001753
INCLINATION    = 43.0002
RA_OF_ASC_NODE = 310.2753
ARG_OF_PERICENTER = 275.4156
MEAN_ANOMALY   = 159.6547

EPHEMERIS_TYPE = 0
CLASSIFICATION_TYPE = U
NORAD_CAT_ID   = 67996
ELEMENT_SET_NO = 999
REV_AT_EPOCH   = 568
BSTAR          = -.53495E-1
MEAN_MOTION_DOT = -.1822256E-1
MEAN_MOTION_DDOT = 0

