STARLINK-36802          
1 67985U 26038AA  26085.98383308  .00277231  00000+0  17887-2 0  9991
2 67985  97.2872  97.2043 0001122 102.2257 257.9134 15.75334171  5915
STARLINK-36535          
1 67986U 26039A   26086.16670139 -.01947737  00000+0 -72691-1 0  9996
2 67986  42.9993 310.7891 0000985 269.3331 316.4895 15.29899943  5686
STARLINK-36744          
1 67987U 26039B   26086.16670139 -.02173518  00000+0 -76161-1 0  9992
2 67987  42.9992 310.5881 0001425 277.3145  30.5055 15.32276097  5680
STARLINK-36734          
1 67988U 26039C   26086.16670139 -.00026866  00000+0 -45352-3 0  9994
2 67988  42.9997 311.4104 0001806 279.0486  57.6676 15.50588420  5689
STARLINK-36957          
1 67989U 26039D   26086.16670139 -.02174045  00000+0 -70051-1 0  9992
2 67989  42.9989 310.5489 0001366 281.6259  42.6675 15.34902641  5685
STARLINK-36951          
1 67990U 26039E   26084.04675806  .00061583  00000+0  10465-2 0  9997
2 67990  43.0018 322.9387 0002967 275.8567  84.1955 15.50598247  4043
STARLINK-36941          
1 67991U 26039F   26085.97701705  .00089000  00000+0  15034-2 0  9990
2 67991  43.0013 312.5064 0002963 268.9588  91.0933 15.50619388  4333
STARLINK-36950          
1 67992U 26039G   26085.94968546  .00103632  00000+0  17468-2 0  9997
2 67992  43.0009 312.2914 0002234 276.3543  83.7062 15.50613993  4332
STARLINK-36975          
1 67993U 26039H   26086.00708105  .00085666  00000+0  14492-2 0  9999
2 67993  42.9973 311.8584 0001248 262.7684  97.3035 15.50597274  4343
STARLINK-36993          
1 67994U 26039J   26086.16670139 -.01875718  00000+0 -52968-1 0  9999
2 67994  42.9998 310.3608 0001973 256.3459 144.7076 15.38988872  5680
STARLINK-36968          
1 67995U 26039K   26085.95717995  .00075209  00000+0  12744-2 0  9991
2 67995  43.0002 312.3509 0002402 287.6421  72.4177 15.50601675  4332
STARLINK-36979          
1 67996U 26039L   26086.16670139 -.01822256  00000+0 -53495-1 0  9996
2 67996  43.0002 310.2753 0001753 275.4156 159.6547 15.37715189  5688
